OBJECT_NAME,OBJECT_ID,EPOCH,MEAN_MOTION,ECCENTRICITY,INCLINATION,RA_OF_ASC_NODE,ARG_OF_PERICENTER,MEAN_ANOMALY,EPHEMERIS_TYPE,CLASSIFICATION_TYPE,NORAD_CAT_ID,ELEMENT_SET_NO,REV_AT_EPOCH,BSTAR,MEAN_MOTION_DOT,MEAN_MOTION_DDOT
S-NET A,2018-014J,2026-06-07T16:42:26.763840,15.16591754,.0010161,97.5380,63.7393,54.8789,305.3395,0,U,43188,999,45732,.31878E-3,.6167E-4,0
S-NET C,2018-014K,2026-06-07T17:05:43.596960,15.16546137,.0011385,97.5397,63.8288,47.9234,312.2965,0,U,43189,999,45587,.28453E-3,.5491E-4,0
GOES 17,2018-022A,2026-06-08T00:58:44.198976,1.00271990,.0000634,0.9130,85.8739,8.7123,87.0479,0,U,43226,999,3033,0,-.167E-5,0
LKW-4,2018-025A,2026-06-08T01:06:13.027104,15.61551797,.0001884,97.6346,329.2090,342.7424,17.3768,0,U,43236,999,45860,.463E-3,.39695E-3,0
ZHUHAI-1 OVS-02,2018-040B,2026-06-08T02:39:20.445984,15.24905550,.0001632,97.0396,176.8792,309.1454,50.9640,0,U,43440,999,45133,.33264E-3,.8213E-4,0
ZHUHAI-1 OHS-02,2018-040C,2026-06-08T03:59:35.109312,15.25752176,.0007349,97.0379,183.8622,258.9164,101.1249,0,U,43441,999,11290,.34682E-3,.8793E-4,0
GAOFEN-6,2018-048A,2026-06-08T04:39:22.644576,14.76621942,.0011332,97.7757,222.2079,197.8547,162.2267,0,U,43484,999,43206,.8043E-4,.513E-5,0
LUOJIA-1 01,2018-048B,2026-06-08T03:48:48.233376,14.87250794,.0009785,97.8094,237.4914,144.1973,215.9901,0,U,43485,999,43287,.21611E-3,.1894E-4,0
PAKTES 1A,2018-056A,2026-06-08T04:39:14.128992,14.99065160,.0022323,98.1305,315.2969,134.2112,226.0947,0,U,43529,999,43057,.18364E-3,.2174E-4,0
PRSS-1,2018-056B,2026-06-08T03:25:01.979328,14.81974933,.0001753,97.7816,227.2622,77.1845,282.9564,0,U,43530,999,42709,.13312E-3,.1004E-4,0
HAIYANG-1C,2018-068A,2026-06-08T04:12:33.842016,14.34176504,.001193,98.5187,231.6135,118.2668,241.9722,0,U,43609,999,40579,.71332E-4,.157E-5,0
SSTL S1-4,2018-071A,2026-06-08T04:38:32.445312,14.96183183,.0001371,97.5033,31.1815,106.3142,253.8231,0,U,43618,999,42159,.14556E-3,.1585E-4,0
HAIYANG-2B,2018-081A,2026-06-08T04:02:12.474816,13.79307946,.0000802,99.3289,168.0609,16.9253,343.1926,0,U,43655,999,38368,-.15314E-3,-.201E-5,0
CFOSAT,2018-083A,2026-06-08T04:26:36.883104,15.16318596,.0002398,97.3608,163.9816,97.1856,262.9650,0,U,43662,999,42107,.17004E-3,.323E-4,0
TEN-KOH,2018-084G,2026-06-08T01:39:27.069984,15.02906349,.0010504,98.0785,351.0479,142.9937,217.2013,0,U,43677,999,41479,.22072E-3,.2899E-4,0
DIWATA-2B,2018-084H,2026-06-08T04:00:20.122848,15.00408860,.0011994,98.1169,354.9843,200.0320,160.0433,0,U,43678,999,41486,.19081E-3,.2336E-4,0
STARS-AO,2018-084J,2026-06-08T02:28:11.112960,15.16954130,.0002233,98.0518,12.5148,157.5750,202.5579,0,U,43679,999,41609,.33294E-3,.6497E-4,0
AUTCUBE 2,2018-084K,2026-06-07T13:20:27.110112,15.10026627,.0010504,98.0723,4.2201,78.1987,282.0418,0,U,43681,999,41547,.25607E-3,.4097E-4,0
METOP-C,2018-087A,2026-06-08T03:05:31.748352,14.21509778,.0001422,98.6646,218.8977,139.5747,220.5536,0,U,43689,999,39354,.66666E-4,.102E-5,0
ES'HAIL 2,2018-090A,2026-06-07T21:37:30.326880,1.00273859,.0001905,0.0153,51.7811,61.1895,133.5104,0,U,43700,999,2758,0,.159E-5,0
MOHAMMED VI-B,2018-095A,2026-06-08T04:00:59.313888,14.77107275,.0001209,97.9551,231.6164,89.9268,270.2080,0,U,43717,999,40685,.15016E-3,.101E-4,0
HYSIS,2018-096A,2026-06-08T03:27:04.712256,14.78677968,.0001657,97.9836,225.9623,112.5871,247.5515,0,U,43719,999,40608,.19233E-3,.1358E-4,0
COSMOS 2530 (RODNIK-S 16),2018-097A,2026-06-08T04:48:03.309984,12.42881001,.0020511,82.5142,227.8577,58.4742,301.8337,0,U,43751,999,34117,-.29637E-3,-.31E-6,0
COSMOS 2531 (RODNIK-S 17),2018-097B,2026-06-08T05:20:27.115584,12.42912796,.0017915,82.5188,228.8991,76.7732,283.5345,0,U,43752,999,34119,.99795E-4,.24E-6,0
COSMOS 2532 (RODNIK-S 18),2018-097C,2026-06-08T04:05:13.447392,12.42909994,.0019309,82.5131,227.7216,78.7337,281.5911,0,U,43753,999,34115,.74473E-3,.113E-5,0
MINXSS-2,2018-099A,2026-06-08T03:54:57.220128,15.46295313,.0006102,97.4534,235.1876,294.2363,65.8249,0,U,43758,999,41273,.59095E-3,.29115E-3,0
SIRION PATHFINDER-2,2018-099B,2026-06-08T01:32:18.946752,15.14472143,.0007877,97.4257,208.3390,341.7112,18.3836,0,U,43759,999,41124,.30221E-3,.5499E-4,0
AISTECHSAT 2,2018-099L,2026-06-08T02:36:37.340928,15.15359496,.0003939,97.4296,207.3418,351.5591,8.5575,0,U,43768,999,41090,.30643E-3,.5716E-4,0
FOX-1CLIFF (AO-95),2018-099N,2026-06-08T03:55:16.914144,15.26519996,.0008916,97.4386,219.4444,30.0616,330.1133,0,U,43770,999,41184,.36286E-3,.9417E-4,0
